[{"OBJECT_NAME":"STARLINK-35758","OBJECT_ID":"2025-244Z","EPOCH":"2026-03-09T16:54:58.286592","MEAN_MOTION":15.30203217,"ECCENTRICITY":9.365e-5,"INCLINATION":53.16,"RA_OF_ASC_NODE":229.7065,"ARG_OF_PERICENTER":80.3876,"MEAN_ANOMALY":279.7231,"EPHEMERIS_TYPE":0,"CLASSIFICATION_TYPE":"U","NORAD_CAT_ID":66229,"ELEMENT_SET_NO":999,"REV_AT_EPOCH":2166,"BSTAR":0.00059310301,"MEAN_MOTION_DOT":0.00017249,"MEAN_MOTION_DDOT":0},{"OBJECT_NAME":"KSLV-II R\/B","OBJECT_ID":"2023-072H","EPOCH":"2026-03-09T20:13:26.441760","MEAN_MOTION":15.33109439,"ECCENTRICITY":0.00241884,"INCLINATION":97.4991,"RA_OF_ASC_NODE":274.152,"ARG_OF_PERICENTER":318.2938,"MEAN_ANOMALY":41.646,"EPHEMERIS_TYPE":0,"CLASSIFICATION_TYPE":"U","NORAD_CAT_ID":56750,"ELEMENT_SET_NO":999,"REV_AT_EPOCH":15516,"BSTAR":0.00028309532,"MEAN_MOTION_DOT":9.057e-5,"MEAN_MOTION_DDOT":0}]
